[{"OBJECT_NAME":"SITRO-AIS 5 (KATYS)","OBJECT_ID":"2023-091L","EPOCH":"2026-03-09T22:36:44.932608","MEAN_MOTION":15.27079182,"ECCENTRICITY":0.00133776,"INCLINATION":97.5176,"RA_OF_ASC_NODE":132.0172,"ARG_OF_PERICENTER":94.5677,"MEAN_ANOMALY":265.709,"EPHEMERIS_TYPE":0,"CLASSIFICATION_TYPE":"U","NORAD_CAT_ID":57176,"ELEMENT_SET_NO":999,"REV_AT_EPOCH":14918,"BSTAR":0.00057530772,"MEAN_MOTION_DOT":0.00015262,"MEAN_MOTION_DDOT":0},{"OBJECT_NAME":"STARLINK-33772","OBJECT_ID":"2025-083Y","EPOCH":"2026-03-09T05:00:49.254624","MEAN_MOTION":15.27590257,"ECCENTRICITY":0.00020711,"INCLINATION":43.0049,"RA_OF_ASC_NODE":7.8936,"ARG_OF_PERICENTER":253.5993,"MEAN_ANOMALY":106.4631,"EPHEMERIS_TYPE":0,"CLASSIFICATION_TYPE":"U","NORAD_CAT_ID":63656,"ELEMENT_SET_NO":999,"REV_AT_EPOCH":5002,"BSTAR":0.00098084142,"MEAN_MOTION_DOT":0.00026836,"MEAN_MOTION_DDOT":0}]
